NORAD_CAT_ID,OBJECT_NAME,OBJECT_TYPE,EPOCH,MEAN_MOTION,ECCENTRICITY,INCLINATION,RA_OF_ASC_NODE,ARG_OF_PERICENTER,MEAN_ANOMALY,BSTAR,MEAN_MOTION_DOT,MEAN_MOTION_DDOT,TLE_LINE0,TLE_LINE1,TLE_LINE2,SEMIMAJOR_AXIS,PERIOD,APOGEE,PERIGEE,DECAYED
52463.0,STARLINK-3885,PAYLOAD,2023-03-31 14:05:03,15.08867767,0.0001254,53.2166,190.9578,97.0224,263.0911,0.0015087,0.00023823,0.0,0 STARLINK-3885,1 52463U 22049N   23090.58684238  .00023823  00000-0  15087-2 0  9996,2 52463  53.2166 190.9578 0001254  97.0224 263.0911 15.08867767 50394,6917.796,95.436,540.528,538.793,0.0
52463.0,STARLINK-3885,PAYLOAD,2023-04-01 05:58:55,15.08842796,0.000222,53.2169,187.9844,86.6989,273.4257,0.0008213,0.00012808,0.0,0 STARLINK-3885,1 52463U 22049N   23091.24924861  .00012808  00000-0  82130-3 0  9994,2 52463  53.2169 187.9844 0002220  86.6989 273.4257 15.08842796 50499,6917.872,95.437,541.273,538.201,0.0
52463.0,STARLINK-3885,PAYLOAD,2023-04-01 12:20:27,15.08835855,0.0001317,53.2163,186.7942,89.8704,270.2439,0.00015287,2.146e-05,0.0,0 STARLINK-3885,1 52463U 22049N   23091.51420829  .00002146  00000-0  15287-3 0  9992,2 52463  53.2163 186.7942 0001317  89.8704 270.2439 15.08835855 50377,6917.893,95.438,540.669,538.847,0.0
52463.0,STARLINK-3885,PAYLOAD,2023-04-01 15:31:13,15.08843172,0.0001322,53.2166,186.1994,91.3491,268.7652,0.00062611,9.691e-05,0.0,0 STARLINK-3885,1 52463U 22049N   23091.64668800  .00009691  00000-0  62611-3 0  9994,2 52463  53.2166 186.1994 0001322  91.3491 268.7652 15.08843172 50558,6917.871,95.437,540.65,538.821,0.0
52463.0,STARLINK-3885,PAYLOAD,2023-04-02 05:49:42,15.08837774,0.0001332,53.2173,183.523,93.208,266.9064,0.00061109,9.45e-05,0.0,0 STARLINK-3885,1 52463U 22049N   23092.24285226  .00009450  00000-0  61109-3 0  9992,2 52463  53.2173 183.5230 0001332  93.2080 266.9064 15.08837774 50644,6917.887,95.438,540.674,538.831,0.0
52463.0,STARLINK-3885,PAYLOAD,2023-04-02 12:11:14,15.08846143,0.0001487,53.2168,182.3341,90.2737,269.8425,0.00056494,8.716e-05,0.0,0 STARLINK-3885,1 52463U 22049N   23092.50781050  .00008716  00000-0  56494-3 0  9992,2 52463  53.2168 182.3341 0001487  90.2737 269.8425 15.08846143 50525,6917.862,95.437,540.755,538.698,0.0
52463.0,STARLINK-3885,PAYLOAD,2023-04-02 15:22:00,15.08855005,0.0001582,53.2171,181.7386,90.8962,269.2211,0.0008331,0.00013001,0.0,0 STARLINK-3885,1 52463U 22049N   23092.64028886  .00013001  00000-0  83310-3 0  9998,2 52463  53.2171 181.7386 0001582  90.8962 269.2211 15.08855005 50707,6917.835,95.437,540.794,538.605,0.0
52463.0,STARLINK-3885,PAYLOAD,2023-04-03 05:40:29,15.08839469,0.0001846,53.2163,179.064,75.8063,284.3135,0.00027782,4.136e-05,0.0,0 STARLINK-3885,1 52463U 22049N   23093.23645471  .00004136  00000-0  27782-3 0  9999,2 52463  53.2163 179.0640 0001846  75.8063 284.3135 15.08839469 50797,6917.882,95.438,541.024,538.47,0.0
52463.0,STARLINK-3885,PAYLOAD,2023-04-03 10:26:39,15.08835624,0.0001616,53.2169,178.1718,76.7812,283.336,0.00020815,3.026e-05,0.0,0 STARLINK-3885,1 52463U 22049N   23093.43517593  .00003026  00000-0  20815-3 0  9991,2 52463  53.2169 178.1718 0001616  76.7812 283.3360 15.08835624 50660,6917.894,95.438,540.877,538.641,0.0
52463.0,STARLINK-3885,PAYLOAD,2023-04-04 11:52:48,15.08858067,0.0001575,53.2175,173.4126,84.2634,275.8538,0.00071038,0.00011041,0.0,0 STARLINK-3885,1 52463U 22049N   23094.49501042  .00011041  00000-0  71038-3 0  9999,2 52463  53.2175 173.4126 0001575  84.2634 275.8538 15.08858067 50982,6917.825,95.436,540.78,538.601,0.0
52463.0,STARLINK-3885,PAYLOAD,2023-04-05 05:22:03,15.08842844,0.0001411,53.2171,170.1422,81.4336,278.6816,0.00018925,2.725e-05,0.0,0 STARLINK-3885,1 52463U 22049N   23095.22365365  .00002725  00000-0  18925-3 0  9992,2 52463  53.2171 170.1422 0001411  81.4336 278.6816 15.08842844 51097,6917.872,95.437,540.713,538.761,0.0
52463.0,STARLINK-3885,PAYLOAD,2023-04-05 11:43:36,15.08837975,0.0001333,53.2182,168.9528,86.3365,273.778,0.00018035,2.583e-05,0.0,0 STARLINK-3885,1 52463U 22049N   23095.48861513  .00002583  00000-0  18035-3 0  9990,2 52463  53.2182 168.9528 0001333  86.3365 273.7780 15.08837975 50971,6917.887,95.438,540.674,538.829,0.0
52463.0,STARLINK-3885,PAYLOAD,2023-04-06 09:59:00,15.08849638,0.0001393,53.2171,164.7895,83.4412,276.6739,0.00048293,7.408e-05,0.0,0 STARLINK-3885,1 52463U 22049N   23096.41597392  .00007408  00000-0  48293-3 0  9995,2 52463  53.2171 164.7895 0001393  83.4412 276.6739 15.08849638 51276,6917.851,95.437,540.68,538.752,0.0
52463.0,STARLINK-3885,PAYLOAD,2023-04-06 21:06:41,15.0884902,0.0001281,53.2159,162.7084,77.7834,282.3301,0.00030826,4.623e-05,0.0,0 STARLINK-3885,1 52463U 22049N   23096.87965236  .00004623  00000-0  30826-3 0  9990,2 52463  53.2159 162.7084 0001281  77.7834 282.3301 15.08849020 51184,6917.853,95.437,540.604,538.832,0.0
52463.0,STARLINK-3885,PAYLOAD,2023-04-07 05:03:37,15.08841084,0.0001394,53.2168,161.2216,92.0602,268.0549,3.0886e-06,-2.39e-06,0.0,0 STARLINK-3885,1 52463U 22049N   23097.21085347 -.00000239  00000-0  30886-5 0  9993,2 52463  53.2168 161.2216 0001394  92.0602 268.0549 15.08841084 51393,6917.877,95.437,540.706,538.778,0.0
52463.0,STARLINK-3885,PAYLOAD,2023-04-07 09:49:47,15.08841219,0.0001396,53.2167,160.3294,93.1193,266.9959,0.00010729,1.42e-05,0.0,0 STARLINK-3885,1 52463U 22049N   23097.40957408  .00001420  00000-0  10729-3 0  9994,2 52463  53.2167 160.3294 0001396  93.1193 266.9959 15.08841219 51265,6917.877,95.437,540.707,538.776,0.0
52463.0,STARLINK-3885,PAYLOAD,2023-04-08 11:15:57,15.0884484,0.0001549,53.2176,155.5727,94.324,265.7929,5.9929e-05,6.66e-06,0.0,0 STARLINK-3885,1 52463U 22049N   23098.46941094  .00000666  00000-0  59929-4 0  9992,2 52463  53.2176 155.5727 0001549  94.3240 265.7929 15.08844840 51580,6917.866,95.437,540.802,538.659,0.0
52463.0,STARLINK-3885,PAYLOAD,2023-04-09 04:45:11,15.08839543,0.000162,53.2176,152.3009,87.2484,272.8693,-2.0848e-05,-6.2e-06,0.0,0 STARLINK-3885,1 52463U 22049N   23099.19805381 -.00000620  00000-0 -20848-4 0  9991,2 52463  53.2176 152.3009 0001620  87.2484 272.8693 15.08839543 51692,6917.882,95.438,540.867,538.626,0.0
52463.0,STARLINK-3885,PAYLOAD,2023-04-09 11:06:44,15.08841506,0.0001579,53.2187,151.1113,88.3053,271.812,7.136e-05,8.48e-06,0.0,0 STARLINK-3885,1 52463U 22049N   23099.46301486  .00000848  00000-0  71360-4 0  9993,2 52463  53.2187 151.1113 0001579  88.3053 271.8120 15.08841506 51577,6917.876,95.437,540.833,538.648,0.0
52463.0,STARLINK-3885,PAYLOAD,2023-04-09 20:39:03,15.08840207,0.0001609,53.2188,149.3275,81.4253,278.6922,5.7967e-05,6.35e-06,0.0,0 STARLINK-3885,1 52463U 22049N   23099.86045657  .00000635  00000-0  57967-4 0  9993,2 52463  53.2188 149.3275 0001609  81.4253 278.6922 15.08840207 51635,6917.88,95.438,540.858,538.632,0.0
52463.0,STARLINK-3885,PAYLOAD,2023-04-10 07:46:45,15.08838928,0.0001563,53.217,147.2442,84.7994,275.3176,6.7856e-05,7.92e-06,0.0,0 STARLINK-3885,1 52463U 22049N   23100.32413735  .00000792  00000-0  67856-4 0  9995,2 52463  53.2170 147.2442 0001563  84.7994 275.3176 15.08838928 51863,6917.884,95.438,540.83,538.667,0.0
52463.0,STARLINK-3885,PAYLOAD,2023-04-10 20:29:50,15.08843831,0.0001666,53.218,144.8673,81.2125,278.9055,7.9974e-05,9.85e-06,0.0,0 STARLINK-3885,1 52463U 22049N   23100.85405389  .00000985  00000-0  79974-4 0  9997,2 52463  53.2180 144.8673 0001666  81.2125 278.9055 15.08843831 51780,6917.869,95.437,540.886,538.581,0.0
52463.0,STARLINK-3885,PAYLOAD,2023-04-11 09:12:54,15.08847928,0.000166,53.2177,142.4876,80.2129,279.905,0.00012858,1.759e-05,0.0,0 STARLINK-3885,1 52463U 22049N   23101.38396947  .00001759  00000-0  12858-3 0  9992,2 52463  53.2177 142.4876 0001660  80.2129 279.9050 15.08847928 52027,6917.856,95.437,540.87,538.573,0.0
52463.0,STARLINK-3885,PAYLOAD,2023-04-11 20:20:36,15.08845844,0.0001543,53.217,140.4083,74.8647,285.2515,8.5591e-05,1.075e-05,0.0,0 STARLINK-3885,1 52463U 22049N   23101.84765045  .00001075  00000-0  85591-4 0  9998,2 52463  53.2170 140.4083 0001543  74.8647 285.2515 15.08845844 51932,6917.863,95.437,540.795,538.66,0.0
52463.0,STARLINK-3885,PAYLOAD,2023-04-12 12:14:29,15.08836072,0.0001566,53.2173,137.4314,88.3579,271.7592,1.7472e-05,-1e-07,0.0,0 STARLINK-3885,1 52463U 22049N   23102.51005859 -.00000010  00000-0  17472-4 0  9995,2 52463  53.2173 137.4314 0001566  88.3579 271.7592 15.08836072 52037,6917.892,95.438,540.841,538.674,0.0
52463.0,STARLINK-3885,PAYLOAD,2023-04-13 08:54:29,15.08838146,0.0001611,53.2176,133.5648,105.3991,254.7179,-3.8109e-05,-8.94e-06,0.0,0 STARLINK-3885,1 52463U 22049N   23103.37117937 -.00000894  00000-0 -38109-4 0  9992,2 52463  53.2176 133.5648 0001611 105.3991 254.7179 15.08838146 52166,6917.886,95.438,540.866,538.637,0.0
52463.0,STARLINK-3885,PAYLOAD,2023-04-13 18:26:48,15.08840826,0.000161,53.2177,131.781,103.1139,257.0033,-4.2024e-05,-9.57e-06,0.0,0 STARLINK-3885,1 52463U 22049N   23103.76861823 -.00000957  00000-0 -42024-4 0  9996,2 52463  53.2177 131.7810 0001610 103.1139 257.0033 15.08840826 52384,6917.878,95.438,540.857,538.629,0.0
52463.0,STARLINK-3885,PAYLOAD,2023-04-14 08:45:16,15.08840352,0.0001503,53.2171,129.1047,97.7431,262.3732,0.00011017,1.466e-05,0.0,0 STARLINK-3885,1 52463U 22049N   23104.36477670  .00001466  00000-0  11017-3 0  9997,2 52463  53.2171 129.1047 0001503  97.7431 262.3732 15.08840352 52317,6917.879,95.438,540.784,538.705,0.0
52463.0,STARLINK-3885,PAYLOAD,2023-04-15 00:39:08,15.08836549,0.000147,53.2171,126.1317,94.0285,266.0875,0.00010569,1.394e-05,0.0,0 STARLINK-3885,1 52463U 22049N   23105.02718135  .00001394  00000-0  10569-3 0  9996,2 52463  53.2171 126.1317 0001470  94.0285 266.0875 15.08836549 52574,6917.891,95.438,540.773,538.739,0.0
52463.0,STARLINK-3885,PAYLOAD,2023-04-15 10:11:27,15.08841148,0.0001497,53.2172,124.3472,93.7044,266.412,0.00011615,1.561e-05,0.0,0 STARLINK-3885,1 52463U 22049N   23105.42461964  .00001561  00000-0  11615-3 0  9994,2 52463  53.2172 124.3472 0001497  93.7044 266.4120 15.08841148 52472,6917.877,95.437,540.777,538.706,0.0
